TISAT 1                 
1 36799U 10035E   26068.75703561  .00024554  00000+0  91005-3 0  9996
2 36799  98.0645   6.8512 0001343 159.3030 200.8262 15.27628633852505
STARLINK-35746          
1 66582U 25268AB  26068.17139455  .00028753  00000+0  10504-2 0  9993
2 66582  43.0025 349.7148 0001538 252.3791 107.6892 15.27577048 17888
